From:	Horizons Ephemeris System <horizons@ssd.jpl.nasa.gov>
Sent:	Wednesday, March 4, 2020 9:54 AM
Subject:	[Horizons] MAJOR BODY #C(usr={0.,-75.,.600^G}@301)_T(301) (1/1)

 Automated mail xmit by MAIL_REQUEST, PID= 24628 Wed Mar  4 07:53:38 2020
++++++++++++++++++++++++++++++++ (part 1 of 1)  +++++++++++++++++++++++++++++++
*******************************************************************************
 Revised: July 31, 2013             Moon / (Earth)                          301
 
 GEOPHYSICAL DATA (updated 2018-Aug-15):
  Vol. mean radius, km  = 1737.53+-0.03    Mass, x10^22 kg       =    7.349
  Radius (gravity), km  = 1738.0           Surface emissivity    =    0.92
  Radius (IAU), km      = 1737.4           GM, km^3/s^2          = 4902.800066
  Density, g/cm^3       =    3.3437        GM 1-sigma, km^3/s^2  =  +-0.0001  
  V(1,0)                =   +0.21          Surface accel., m/s^2 =    1.62
  Earth/Moon mass ratio = 81.3005690769    Farside crust. thick. = ~80 - 90 km
  Mean crustal density  = 2.97+-.07 g/cm^3 Nearside crust. thick.= 58+-8 km 
  Heat flow, Apollo 15  = 3.1+-.6 mW/m^2   Mean angular diameter = 31'05.2"
  Heat flow, Apollo 17  = 2.2+-.5 mW/m^2   Sid. rot. rate, rad/s = 0.0000026617
  Geometric Albedo      = 0.12             Mean solar day        = 29.5306 d
  Obliquity to orbit    = 6.67 deg         Orbit period          = 27.321582 d
  Semi-major axis, a    = 384400 km        Eccentricity          = 0.05490
  Mean motion, rad/s    = 2.6616995x10^-6  Inclination           = 5.145 deg
  Apsidal period        = 3231.50 d        Nodal period          = 6798.38 d
                                 Perihelion  Aphelion    Mean
  Solar Constant (W/m^2)         1414+-7     1323+-7     1368+-7
  Maximum Planetary IR (W/m^2)   1314        1226        1268
  Minimum Planetary IR (W/m^2)      5.2         5.2         5.2
 *******************************************************************************
 
 
*******************************************************************************
Ephemeris / MAIL_REQUEST Wed Mar  4 07:53:37 2020 Pasadena, USA  / Horizons    
*******************************************************************************
Target body name: Moon (301)                      {source: DE431mx}
Center body name: Moon (301)                      {source: DE431mx}
Center-site name: (user defined site below)
*******************************************************************************
Start time      : A.D. 2020-Jan-01 00:00:00.0000 TDB
Stop  time      : A.D. 2039-Jan-01 00:00:00.0000 TDB
Step-size       : 10000 steps
*******************************************************************************
Center geodetic : 0.00000000,-75.000000,0.6000000 {E-lon(deg),Lat(deg),Alt(km)}
Center cylindric: 0.00000000,449.827500,-1678.779 {E-lon(deg),Dxy(km),Dz(km)}
Center pole/equ : IAU_MOON                        {East-longitude positive}
Center radii    : 1737.4 x 1737.4 x 1737.4 km     {Equator, meridian, pole}    
Output units    : KM-S                                                         
Output type     : GEOMETRIC cartesian states
Output format   : 3 (position, velocity, LT, range, range-rate)
Reference frame : ICRF/J2000.0                                                 
Coordinate systm: Ecliptic and Mean Equinox of Reference Epoch                 
*******************************************************************************
JDTDB
   X     Y     Z
   VX    VY    VZ
   LT    RG    RR
*******************************************************************************
$$SOE
2464260.618000002 = A.D. 2034-Oct-25 02:49:55.2001 TDB 
   4.427769073471865E+02 -1.406915575567405E+01  1.680593546690093E+03
  -8.173032053252345E-05  1.196568842533401E-03  3.155016992913140E-05
   5.797343974543886E-03  1.738000000000001E+03  3.193967274525766E-20
2464261.312000002 = A.D. 2034-Oct-25 19:29:16.8001 TDB 
   4.321831042704543E+02  5.698551330349403E+01  1.682442990313994E+03
  -2.708681148691403E-04  1.168407608202791E-03  3.000536465218691E-05
   5.797343974543885E-03  1.738000000000001E+03 -5.589442730420089E-20
2464262.006000001 = A.D. 2034-Oct-26 12:08:38.4001 TDB 
   4.104316805742474E+02  1.254564601711407E+02  1.684176508618478E+03
  -4.531002527954069E-04  1.110574332668014E-03  2.769185619875219E-05
   5.797343974543886E-03  1.738000000000000E+03  7.984918186314416E-21
2464262.700000002 = A.D. 2034-Oct-27 04:48:00.0001 TDB 
   3.780764796966054E+02  1.896051607137153E+02  1.685749702218853E+03
  -6.238045024653745E-04  1.024547822902169E-03  2.466929440118600E-05
   5.797343974543885E-03  1.738000000000000E+03  1.277586909810306E-19
2464263.394000002 = A.D. 2034-Oct-27 21:27:21.6001 TDB 
   3.359402091987859E+02  2.478033832996046E+02  1.687122301159210E+03
  -7.786540740236010E-04  9.125201032770078E-04  2.101545547448863E-05
   5.797343974543886E-03  1.738000000000001E+03 -3.992459093157207E-20
2464264.088000001 = A.D. 2034-Oct-28 14:06:43.2001 TDB 
   2.850934197986458E+02  2.985743522001010E+02  1.688259191651508E+03
  -9.137263613141567E-04  7.773401208652297E-04  1.682416433519110E-05
   5.797343974543886E-03  1.738000000000001E+03  1.796606591920743E-20
2464264.782000002 = A.D. 2034-Oct-29 06:46:04.8001 TDB 
   2.268272634864208E+02  3.406300385758528E+02  1.689131306133149E+03
  -1.025601278700653E-03  6.224411585321569E-04  1.220282612665697E-05
   5.797343974543885E-03  1.738000000000000E+03 -9.781524778235158E-20
2464265.476000002 = A.D. 2034-Oct-29 23:25:26.4001 TDB 
   1.626207268866152E+02  3.729036563786551E+02  1.689716355559803E+03
  -1.111446833331363E-03  4.517538230525698E-04  7.269645874241609E-06
   5.797343974543886E-03  1.738000000000001E+03  5.589442730420089E-20
2464266.170000002 = A.D. 2034-Oct-30 16:04:48.0001 TDB 
   9.410316794803295E+01  3.945765623884738E+02  1.689999387631795E+03
  -1.169089898920736E-03  2.696067975009850E-04  2.150616015947750E-06
   5.797343974543885E-03  1.738000000000001E+03 -2.495286933223254E-21
2464266.864000001 = A.D. 2034-Oct-31 08:44:09.6001 TDB 
   2.301309531850238E+01  4.050988991731763E+02  1.689973159352699E+03
  -1.197070519516834E-03  8.061781509196310E-05 -3.023651677904800E-06
   5.797343974543886E-03  1.738000000000000E+03  4.990573866446510E-22
2464267.558000002 = A.D. 2034-Nov-01 01:23:31.2001 TDB 
  -4.884578163733327E+01  4.042034737389381E+02  1.689638316751137E+03
  -1.194678462652623E-03 -1.104224767192357E-04 -8.121178662169266E-06
   5.797343974543885E-03  1.738000000000000E+03  1.097926250618232E-20
2464268.252000002 = A.D. 2034-Nov-01 18:02:52.8001 TDB 
  -1.196501396682278E+02  3.919125295725212E+02  1.689003378694502E+03
  -1.161971153316109E-03 -2.986709385282165E-04 -1.301189093731648E-05
   5.797343974543886E-03  1.738000000000001E+03 -4.990573866446509E-20
2464268.946000001 = A.D. 2034-Nov-02 10:42:14.4001 TDB 
  -1.876031334799116E+02  3.685372422618467E+02  1.688084525542058E+03
  -1.099772547178931E-03 -4.793537278530201E-04 -1.757084706735233E-05
   5.797343974543885E-03  1.738000000000001E+03  2.994344319867905E-20
2464269.640000002 = A.D. 2034-Nov-03 03:21:36.0001 TDB 
  -2.509798473335335E+02  3.346699453791998E+02  1.686905197067198E+03
  -1.009652937768172E-03 -6.478864970904911E-04 -2.168136161492706E-05
   5.797343974543886E-03  1.738000000000000E+03  1.996229546578604E-20
2464270.334000002 = A.D. 2034-Nov-03 20:00:57.6001 TDB 
  -3.081709739917935E+02  2.911692702871063E+02  1.685495507804582E+03
  -8.938901323040042E-04 -7.999900653066611E-04 -2.523796056680736E-05
   5.797343974543886E-03  1.738000000000000E+03  5.988688639735811E-20
2464271.028000002 = A.D. 2034-Nov-04 12:40:19.2001 TDB 
  -3.577236278418837E+02  2.391385573232852E+02  1.683891491897557E+03
  -7.554128686606872E-04 -9.317987124700195E-04 -2.814910123843896E-05
   5.797343974543886E-03  1.738000000000001E+03  1.197737727947162E-20
2464271.722000001 = A.D. 2034-Nov-05 05:19:40.8001 TDB 
  -3.983782642340511E+02  1.798980627157521E+02  1.682134193700665E+03
  -5.977277742227113E-04 -1.039958391553192E-03 -3.033958493028508E-05
   5.797343974543886E-03  1.738000000000001E+03 -1.756682000989171E-19
2464272.416000002 = A.D. 2034-Nov-05 21:59:02.4001 TDB 
  -4.291007674950471E+02  1.149516417415905E+02  1.680268624772859E+03
  -4.248315776995607E-04 -1.121712364797422E-03 -3.175258846419276E-05
   5.797343974543886E-03  1.738000000000000E+03  1.596983637262883E-20
2464273.110000002 = A.D. 2034-Nov-06 14:38:24.0001 TDB 
  -4.491088842946594E+02  4.594873026511175E+01  1.678342612291850E+03
  -2.411106673744621E-04 -1.174972044981209E-03 -3.235124274063024E-05
   5.797343974543886E-03  1.738000000000001E+03 -2.395475455894324E-20
2464273.804000001 = A.D. 2034-Nov-07 07:17:45.6001 TDB 
  -4.578923151031115E+02 -2.535742994409577E+01  1.676405568028258E+03
  -5.123043269068422E-05 -1.198371158769914E-03 -3.211969416048657E-05
   5.797343974543886E-03  1.738000000000000E+03  5.589442730420090E-20
2464274.498000002 = A.D. 2034-Nov-07 23:57:07.2001 TDB 
  -4.552259316555350E+02 -9.715427530825843E+01  1.674507210476467E+03
   1.399828807297861E-04 -1.191301742601048E-03 -3.106359880351134E-05
   5.797343974543886E-03  1.738000000000001E+03 -8.783410004945855E-20
2464275.192000002 = A.D. 2034-Nov-08 16:36:28.8001 TDB 
  -4.411757593254433E+02 -1.676159909327428E+02  1.672696275169899E+03
   3.276648410632020E-04 -1.153930925176525E-03 -2.921001927031142E-05
   5.797343974543885E-03  1.738000000000001E+03  7.984918186314413E-20
2464275.886000001 = A.D. 2034-Nov-09 09:15:50.4001 TDB 
  -4.160975460552293E+02 -2.349499960657359E+02  1.671019249295331E+03
   5.070369039072797E-04 -1.087197934672000E-03 -2.660671863436136E-05
   5.797343974543886E-03  1.738000000000001E+03 -5.190196821104368E-20
